{"spkid": "50675042", "covariance": {"labels": ["e", "q", "tp", "node", "peri", "i"], "data": [["9.051959272343722E-15", "-1.979386577571426E-14", "-7.464394847440427E-13", "-3.685120752473514E-13", "-2.228435629794055E-12", "-1.903399027339499E-13"], ["-1.979386577571426E-14", "4.332965840543356E-14", "1.743225401723031E-12", "7.988195735123875E-13", "4.908170060862519E-12", "4.083723323147466E-13"], ["-7.464394847440427E-13", "1.743225401723031E-12", "5.909084738301816E-10", "-2.206741938413759E-11", "5.517402323552696E-10", "-7.017809678422645E-11"], ["-3.685120752473514E-13", "7.988195735123875E-13", "-2.206741938413759E-11", "9.817035088204797E-11", "-2.984083614517418E-11", "3.858854454779963E-11"], ["-2.228435629794055E-12", "4.908170060862519E-12", "5.517402323552696E-10", "-2.984083614517418E-11", "9.577932468072043E-10", "-5.169841508473567E-11"], ["-1.903399027339499E-13", "4.083723323147466E-13", "-7.017809678422645E-11", "3.858854454779963E-11", "-5.169841508473567E-11", "9.207375757143574E-11"]], "elements": [{"label": "e", "sigma": 9.51417851017297e-08, "name": "e", "units": null, "value": ".5537537756387503", "title": "eccentricity"}, {"sigma": 2.08157772868163e-07, "name": "q", "units": "au", "title": "perihelion distance", "value": ".9880465118303225", "label": "q"}, {"label": "tp", "units": "TDB", "value": "2458036.779703916522", "title": "time of perihelion passage", "name": "tp", "sigma": 2.43086090476231e-05}, {"title": "longitude of the ascending node", "value": "307.2225653812818", "units": "deg", "sigma": 9.90809521967002e-06, "name": "om", "label": "node"}, {"label": "peri", "units": "deg", "title": "argument of perihelion", "value": "320.373844644866", "name": "w", "sigma": 3.09482349546336e-05}, {"units": "deg", "title": "inclination", "value": "8.353080123284204", "name": "i", "sigma": 9.59550715550959e-06, "label": "i"}], "epoch": "2458538.5"}, "elements": [{"label": "e", "sigma": "9.6178E-8", "name": "e", "title": "eccentricity", "value": ".5513728504606309", "units": null}, {"sigma": "1.5721E-8", "name": "a", "units": "au", "value": "2.217477954302995", "title": "semi-major axis", "label": "a"}, {"label": "q", "units": "au", "title": "perihelion distance", "value": ".9948208138053442", "sigma": "2.121E-7", "name": "q"}, {"title": "inclination; angle with respect to x-y ecliptic plane", "value": "8.362301161685741", "units": "deg", "sigma": "9.6076E-6", "name": "i", "label": "i"}, {"name": "om", "sigma": "9.8468E-6", "value": "307.1142503550387", "title": "longitude of the ascending node", "units": "deg", "label": "node"}, {"label": "peri", "units": "deg", "value": "320.5734388451145", "title": "argument of perihelion", "sigma": "3.1321E-5", "name": "w"}, {"label": "M", "title": "mean anomaly", "value": "226.3086673535408", "units": "deg", "sigma": "1.5751E-5", "name": "ma"}, {"label": "tp", "units": "TDB", "title": "time of perihelion passage", "value": "2461648.407304279400", "name": "tp", "sigma": "5.7384E-5"}, {"units": "d", "title": "sidereal orbital period", "value": "1206.111318876546", "name": "per", "sigma": "1.2826E-5", "label": "period"}, {"value": ".2984799117342904", "title": "mean motion", "units": "deg/d", "name": "n", "sigma": "3.1741E-9", "label": "n"}, {"name": "ad", "sigma": "2.4389E-8", "value": "3.440135094800647", "title": "aphelion distance", "units": "au", "label": "Q"}], "epoch": "2461200.5"}